{
  "type": "FeatureCollection",
  "features": [
    {
      "type": "Feature",
      "properties": {
        "norad_id": 37295,
        "name": "COSMOS 2251 DEB",
        "group": "cosmos-2251-debris",
        "lat": 37.139565251375444,
        "lon": -87.27210577024313,
        "alt_km": 648.3338465906245,
        "timestamp": "2025-12-23T20:42:37.473624+00:00",
        "meta_object_name": "COSMOS 2251 DEB",
        "meta_object_id": "1993-036BJK",
        "meta_epoch": "2025-12-22T00:17:34.421280",
        "meta_mean_motion": 14.65289136,
        "meta_eccentricity": 0.00439318,
        "meta_inclination": 74.0064,
        "meta_ra_of_asc_node": 263.7481,
        "meta_arg_of_pericenter": 80.1076,
        "meta_mean_anomaly": 280.5048,
        "meta_ephemeris_type": 0,
        "meta_classification_type": "U",
        "meta_norad_cat_id": 37295,
        "meta_element_set_no": 999,
        "meta_rev_at_epoch": 82440,
        "meta_bstar": 0.0005221723,
        "meta_mean_motion_dot": 2.826e-05,
        "meta_mean_motion_ddot": 0,
        "tle_line1": "1 37295U 93036BJK 25356.01220395  .00002826  00000+0  52217-3 0  9997",
        "tle_line2": "2 37295  74.0064 263.7481 0043931  80.1076 280.5048 14.65289136824402"
      },
      "geometry": {
        "type": "Point",
        "coordinates": [
          -87.27210577024313,
          37.139565251375444
        ]
      }
    },
    {
      "type": "Feature",
      "properties": {
        "norad_id": 37305,
        "name": "COSMOS 2251 DEB",
        "group": "cosmos-2251-debris",
        "lat": 72.73293116526247,
        "lon": 21.29139831979213,
        "alt_km": 787.5904724862921,
        "timestamp": "2025-12-23T20:42:37.473634+00:00",
        "meta_object_name": "COSMOS 2251 DEB",
        "meta_object_id": "1993-036BJV",
        "meta_epoch": "2025-12-23T00:11:55.974336",
        "meta_mean_motion": 14.36169187,
        "meta_eccentricity": 0.00495961,
        "meta_inclination": 73.8701,
        "meta_ra_of_asc_node": 271.4675,
        "meta_arg_of_pericenter": 230.2466,
        "meta_mean_anomaly": 129.4312,
        "meta_ephemeris_type": 0,
        "meta_classification_type": "U",
        "meta_norad_cat_id": 37305,
        "meta_element_set_no": 999,
        "meta_rev_at_epoch": 67014,
        "meta_bstar": 0.00056579218,
        "meta_mean_motion_dot": 1.645e-05,
        "meta_mean_motion_ddot": 0,
        "tle_line1": "1 37305U 93036BJV 25357.00828674  .00001645  00000+0  56579-3 0  9996",
        "tle_line2": "2 37305  73.8701 271.4675 0049596 230.2466 129.4312 14.36169187670140"
      },
      "geometry": {
        "type": "Point",
        "coordinates": [
          21.29139831979213,
          72.73293116526247
        ]
      }
    },
    {
      "type": "Feature",
      "properties": {
        "norad_id": 37312,
        "name": "COSMOS 2251 DEB",
        "group": "cosmos-2251-debris",
        "lat": 1.583952491571642,
        "lon": 2.9638964548321303,
        "alt_km": 744.5475433205365,
        "timestamp": "2025-12-23T20:42:37.473644+00:00",
        "meta_object_name": "COSMOS 2251 DEB",
        "meta_object_id": "1993-036BKC",
        "meta_epoch": "2025-12-23T04:56:41.595072",
        "meta_mean_motion": 14.46156001,
        "meta_eccentricity": 0.00184458,
        "meta_inclination": 74.0297,
        "meta_ra_of_asc_node": 184.6435,
        "meta_arg_of_pericenter": 287.0443,
        "meta_mean_anomaly": 72.8694,
        "meta_ephemeris_type": 0,
        "meta_classification_type": "U",
        "meta_norad_cat_id": 37312,
        "meta_element_set_no": 999,
        "meta_rev_at_epoch": 86315,
        "meta_bstar": 0.00037673205,
        "meta_mean_motion_dot": 1.322e-05,
        "meta_mean_motion_ddot": 0,
        "tle_line1": "1 37312U 93036BKC 25357.20603698  .00001322  00000+0  37673-3 0  9999",
        "tle_line2": "2 37312  74.0297 184.6435 0018445 287.0443  72.8694 14.46156001863155"
      },
      "geometry": {
        "type": "Point",
        "coordinates": [
          2.9638964548321303,
          1.583952491571642
        ]
      }
    },
    {
      "type": "Feature",
      "properties": {
        "norad_id": 37316,
        "name": "COSMOS 2251 DEB",
        "group": "cosmos-2251-debris",
        "lat": 18.57913543459758,
        "lon": 173.0978631246315,
        "alt_km": 585.2902548512293,
        "timestamp": "2025-12-23T20:42:37.473654+00:00",
        "meta_object_name": "COSMOS 2251 DEB",
        "meta_object_id": "1993-036BKG",
        "meta_epoch": "2025-12-22T07:03:23.226048",
        "meta_mean_motion": 14.94861341,
        "meta_eccentricity": 0.00294854,
        "meta_inclination": 74.0191,
        "meta_ra_of_asc_node": 1.7909,
        "meta_arg_of_pericenter": 66.1966,
        "meta_mean_anomaly": 294.2305,
        "meta_ephemeris_type": 0,
        "meta_classification_type": "U",
        "meta_norad_cat_id": 37316,
        "meta_element_set_no": 999,
        "meta_rev_at_epoch": 86286,
        "meta_bstar": 0.0024135691,
        "meta_mean_motion_dot": 0.00026594,
        "meta_mean_motion_ddot": 0,
        "tle_line1": "1 37316U 93036BKG 25356.29401882  .00026594  00000+0  24136-2 0  9999",
        "tle_line2": "2 37316  74.0191   1.7909 0029485  66.1966 294.2305 14.94861341862868"
      },
      "geometry": {
        "type": "Point",
        "coordinates": [
          173.0978631246315,
          18.57913543459758
        ]
      }
    },
    {
      "type": "Feature",
      "properties": {
        "norad_id": 37320,
        "name": "COSMOS 2251 DEB",
        "group": "cosmos-2251-debris",
        "lat": 19.36553441768205,
        "lon": -157.92212352053053,
        "alt_km": 637.759311467541,
        "timestamp": "2025-12-23T20:42:37.473664+00:00",
        "meta_object_name": "COSMOS 2251 DEB",
        "meta_object_id": "1993-036BKL",
        "meta_epoch": "2025-12-22T20:16:00.405696",
        "meta_mean_motion": 14.78886663,
        "meta_eccentricity": 0.0046926,
        "meta_inclination": 74.0442,
        "meta_ra_of_asc_node": 198.3073,
        "meta_arg_of_pericenter": 283.335,
        "meta_mean_anomaly": 76.2596,
        "meta_ephemeris_type": 0,
        "meta_classification_type": "U",
        "meta_norad_cat_id": 37320,
        "meta_element_set_no": 999,
        "meta_rev_at_epoch": 66296,
        "meta_bstar": 0.000787018,
        "meta_mean_motion_dot": 5.877e-05,
        "meta_mean_motion_ddot": 0,
        "tle_line1": "1 37320U 93036BKL 25356.84444914  .00005877  00000+0  78702-3 0  9998",
        "tle_line2": "2 37320  74.0442 198.3073 0046926 283.3350  76.2596 14.78886663662961"
      },
      "geometry": {
        "type": "Point",
        "coordinates": [
          -157.92212352053053,
          19.36553441768205
        ]
      }
    },
    {
      "type": "Feature",
      "properties": {
        "norad_id": 37326,
        "name": "COSMOS 2251 DEB",
        "group": "cosmos-2251-debris",
        "lat": -69.02468771080652,
        "lon": -178.2506062430236,
        "alt_km": 733.4448084344076,
        "timestamp": "2025-12-23T20:42:37.473674+00:00",
        "meta_object_name": "COSMOS 2251 DEB",
        "meta_object_id": "1993-036BKS",
        "meta_epoch": "2025-12-18T14:41:59.918784",
        "meta_mean_motion": 14.6160351,
        "meta_eccentricity": 0.00547059,
        "meta_inclination": 74.0257,
        "meta_ra_of_asc_node": 323.4491,
        "meta_arg_of_pericenter": 90.7075,
        "meta_mean_anomaly": 270.0361,
        "meta_ephemeris_type": 0,
        "meta_classification_type": "U",
        "meta_norad_cat_id": 37326,
        "meta_element_set_no": 999,
        "meta_rev_at_epoch": 85569,
        "meta_bstar": 0.00040097011,
        "meta_mean_motion_dot": 2.005e-05,
        "meta_mean_motion_ddot": 0,
        "tle_line1": "1 37326U 93036BKS 25352.61249906  .00002005  00000+0  40097-3 0  9995",
        "tle_line2": "2 37326  74.0257 323.4491 0054705  90.7075 270.0361 14.61603510855692"
      },
      "geometry": {
        "type": "Point",
        "coordinates": [
          -178.2506062430236,
          -69.02468771080652
        ]
      }
    },
    {
      "type": "Feature",
      "properties": {
        "norad_id": 37330,
        "name": "COSMOS 2251 DEB",
        "group": "cosmos-2251-debris",
        "lat": 8.115548687434439,
        "lon": 91.51376377144169,
        "alt_km": 671.2930319952538,
        "timestamp": "2025-12-23T20:42:37.473684+00:00",
        "meta_object_name": "COSMOS 2251 DEB",
        "meta_object_id": "1993-036BKW",
        "meta_epoch": "2025-12-20T12:58:19.659648",
        "meta_mean_motion": 14.5955958,
        "meta_eccentricity": 0.0056796,
        "meta_inclination": 74.0188,
        "meta_ra_of_asc_node": 280.1955,
        "meta_arg_of_pericenter": 126.4731,
        "meta_mean_anomaly": 234.1688,
        "meta_ephemeris_type": 0,
        "meta_classification_type": "U",
        "meta_norad_cat_id": 37330,
        "meta_element_set_no": 999,
        "meta_rev_at_epoch": 86482,
        "meta_bstar": 0.000194,
        "meta_mean_motion_dot": 9.12e-06,
        "meta_mean_motion_ddot": 0,
        "tle_line1": "1 37330U 93036BKW 25354.54050532  .00000912  00000+0  19400-3 0  9998",
        "tle_line2": "2 37330  74.0188 280.1955 0056796 126.4731 234.1688 14.59559580864824"
      },
      "geometry": {
        "type": "Point",
        "coordinates": [
          91.51376377144169,
          8.115548687434439
        ]
      }
    }
  ]
}